{
  "type": "FeatureCollection",
  "features": [
    {
      "type": "Feature",
      "properties": {
        "norad_id": 66898,
        "name": "STARLINK-36065",
        "group": "last-30-days",
        "lat": 23.949958325925156,
        "lon": -143.36514433313332,
        "alt_km": 304.655130557906,
        "timestamp": "2025-12-16T05:49:07.985858+00:00",
        "meta_object_name": "STARLINK-36065",
        "meta_object_id": "2025-283W",
        "meta_epoch": "2025-12-15T21:38:28.283136",
        "meta_mean_motion": 15.88005808,
        "meta_eccentricity": 0.00017923,
        "meta_inclination": 53.1543,
        "meta_ra_of_asc_node": 57.8182,
        "meta_arg_of_pericenter": 40.4617,
        "meta_mean_anomaly": 319.6542,
        "meta_ephemeris_type": 0,
        "meta_classification_type": "U",
        "meta_norad_cat_id": 66898,
        "meta_element_set_no": 999,
        "meta_rev_at_epoch": 295,
        "meta_bstar": 0.0018047647,
        "meta_mean_motion_dot": 0.00531493,
        "meta_mean_motion_ddot": 0,
        "tle_line1": "1 66898U 25283W   25349.90171624  .00531493  00000+0  18048-2 0  9997",
        "tle_line2": "2 66898  53.1543  57.8182 0001792  40.4617 319.6542 15.88005808  2951"
      },
      "geometry": {
        "type": "Point",
        "coordinates": [
          -143.36514433313332,
          23.949958325925156
        ]
      }
    },
    {
      "type": "Feature",
      "properties": {
        "norad_id": 66899,
        "name": "STARLINK-36064",
        "group": "last-30-days",
        "lat": 21.450150118004256,
        "lon": -141.0515605675568,
        "alt_km": 303.8582970670104,
        "timestamp": "2025-12-16T05:49:07.985868+00:00",
        "meta_object_name": "STARLINK-36064",
        "meta_object_id": "2025-283X",
        "meta_epoch": "2025-12-15T21:37:43.524480",
        "meta_mean_motion": 15.88255312,
        "meta_eccentricity": 8.645e-05,
        "meta_inclination": 53.1543,
        "meta_ra_of_asc_node": 57.8145,
        "meta_arg_of_pericenter": 55.5047,
        "meta_mean_anomaly": 304.606,
        "meta_ephemeris_type": 0,
        "meta_classification_type": "U",
        "meta_norad_cat_id": 66899,
        "meta_element_set_no": 999,
        "meta_rev_at_epoch": 295,
        "meta_bstar": 0.0020490171,
        "meta_mean_motion_dot": 0.00617133,
        "meta_mean_motion_ddot": 0,
        "tle_line1": "1 66899U 25283X   25349.90119820  .00617133  00000+0  20490-2 0  9998",
        "tle_line2": "2 66899  53.1543  57.8145 0000864  55.5047 304.6060 15.88255312  2950"
      },
      "geometry": {
        "type": "Point",
        "coordinates": [
          -141.0515605675568,
          21.450150118004256
        ]
      }
    },
    {
      "type": "Feature",
      "properties": {
        "norad_id": 66900,
        "name": "STARLINK-36074",
        "group": "last-30-days",
        "lat": 19.35076742540402,
        "lon": -139.19055071640958,
        "alt_km": 304.35961601569215,
        "timestamp": "2025-12-16T05:49:07.985880+00:00",
        "meta_object_name": "STARLINK-36074",
        "meta_object_id": "2025-283Y",
        "meta_epoch": "2025-12-15T21:37:01.756992",
        "meta_mean_motion": 15.88236866,
        "meta_eccentricity": 8.782e-05,
        "meta_inclination": 53.1545,
        "meta_ra_of_asc_node": 57.8112,
        "meta_arg_of_pericenter": 52.2538,
        "meta_mean_anomaly": 307.8567,
        "meta_ephemeris_type": 0,
        "meta_classification_type": "U",
        "meta_norad_cat_id": 66900,
        "meta_element_set_no": 999,
        "meta_rev_at_epoch": 295,
        "meta_bstar": 0.0019410025,
        "meta_mean_motion_dot": 0.00581649,
        "meta_mean_motion_ddot": 0,
        "tle_line1": "1 66900U 25283Y   25349.90071478  .00581649  00000+0  19410-2 0  9999",
        "tle_line2": "2 66900  53.1545  57.8112 0000878  52.2538 307.8567 15.88236866  2953"
      },
      "geometry": {
        "type": "Point",
        "coordinates": [
          -139.19055071640958,
          19.35076742540402
        ]
      }
    },
    {
      "type": "Feature",
      "properties": {
        "norad_id": 66901,
        "name": "STARLINK-36043",
        "group": "last-30-days",
        "lat": 17.89379043869533,
        "lon": -137.9362303247323,
        "alt_km": 305.9162782587873,
        "timestamp": "2025-12-16T05:49:07.985889+00:00",
        "meta_object_name": "STARLINK-36043",
        "meta_object_id": "2025-283Z",
        "meta_epoch": "2025-12-15T21:36:28.911168",
        "meta_mean_motion": 15.88013131,
        "meta_eccentricity": 0.00022977,
        "meta_inclination": 53.1547,
        "meta_ra_of_asc_node": 57.8091,
        "meta_arg_of_pericenter": 43.9266,
        "meta_mean_anomaly": 316.1942,
        "meta_ephemeris_type": 0,
        "meta_classification_type": "U",
        "meta_norad_cat_id": 66901,
        "meta_element_set_no": 999,
        "meta_rev_at_epoch": 295,
        "meta_bstar": 0.0015970867,
        "meta_mean_motion_dot": 0.00466949,
        "meta_mean_motion_ddot": 0,
        "tle_line1": "1 66901U 25283Z   25349.90033462  .00466949  00000+0  15971-2 0  9994",
        "tle_line2": "2 66901  53.1547  57.8091 0002297  43.9266 316.1942 15.88013131  2952"
      },
      "geometry": {
        "type": "Point",
        "coordinates": [
          -137.9362303247323,
          17.89379043869533
        ]
      }
    },
    {
      "type": "Feature",
      "properties": {
        "norad_id": 66902,
        "name": "STARLINK-35983",
        "group": "last-30-days",
        "lat": 15.55988214609816,
        "lon": -135.98358813543882,
        "alt_km": 305.8785293614492,
        "timestamp": "2025-12-16T05:49:07.985899+00:00",
        "meta_object_name": "STARLINK-35983",
        "meta_object_id": "2025-283AA",
        "meta_epoch": "2025-12-15T21:35:43.663488",
        "meta_mean_motion": 15.88034102,
        "meta_eccentricity": 5.901e-05,
        "meta_inclination": 53.1546,
        "meta_ra_of_asc_node": 57.8054,
        "meta_arg_of_pericenter": 15.4261,
        "meta_mean_anomaly": 344.6782,
        "meta_ephemeris_type": 0,
        "meta_classification_type": "U",
        "meta_norad_cat_id": 66902,
        "meta_element_set_no": 999,
        "meta_rev_at_epoch": 295,
        "meta_bstar": 0.001645144,
        "meta_mean_motion_dot": 0.00482438,
        "meta_mean_motion_ddot": 0,
        "tle_line1": "1 66902U 25283AA  25349.89981092  .00482438  00000+0  16451-2 0  9999",
        "tle_line2": "2 66902  53.1546  57.8054 0000590  15.4261 344.6782 15.88034102  2953"
      },
      "geometry": {
        "type": "Point",
        "coordinates": [
          -135.98358813543882,
          15.55988214609816
        ]
      }
    },
    {
      "type": "Feature",
      "properties": {
        "norad_id": 66903,
        "name": "STARLINK-36077",
        "group": "last-30-days",
        "lat": 13.667014859433467,
        "lon": -134.44225699480128,
        "alt_km": 306.586872486856,
        "timestamp": "2025-12-16T05:49:07.985909+00:00",
        "meta_object_name": "STARLINK-36077",
        "meta_object_id": "2025-283AB",
        "meta_epoch": "2025-12-15T21:35:07.531008",
        "meta_mean_motion": 15.88036047,
        "meta_eccentricity": 0.00019766,
        "meta_inclination": 53.1549,
        "meta_ra_of_asc_node": 57.8027,
        "meta_arg_of_pericenter": 42.8364,
        "meta_mean_anomaly": 317.2816,
        "meta_ephemeris_type": 0,
        "meta_classification_type": "U",
        "meta_norad_cat_id": 66903,
        "meta_element_set_no": 999,
        "meta_rev_at_epoch": 295,
        "meta_bstar": 0.001538359,
        "meta_mean_motion_dot": 0.00449358,
        "meta_mean_motion_ddot": 0,
        "tle_line1": "1 66903U 25283AB  25349.89939272  .00449358  00000+0  15384-2 0  9991",
        "tle_line2": "2 66903  53.1549  57.8027 0001976  42.8364 317.2816 15.88036047  2958"
      },
      "geometry": {
        "type": "Point",
        "coordinates": [
          -134.44225699480128,
          13.667014859433467
        ]
      }
    },
    {
      "type": "Feature",
      "properties": {
        "norad_id": 66904,
        "name": "STARLINK-36059",
        "group": "last-30-days",
        "lat": 13.277053456607904,
        "lon": -134.12928330808774,
        "alt_km": 310.5761127187643,
        "timestamp": "2025-12-16T05:49:07.985921+00:00",
        "meta_object_name": "STARLINK-36059",
        "meta_object_id": "2025-283AC",
        "meta_epoch": "2025-12-15T21:34:40.021248",
        "meta_mean_motion": 15.8720969,
        "meta_eccentricity": 0.00019779,
        "meta_inclination": 53.1545,
        "meta_ra_of_asc_node": 57.8004,
        "meta_arg_of_pericenter": 27.1943,
        "meta_mean_anomaly": 332.9185,
        "meta_ephemeris_type": 0,
        "meta_classification_type": "U",
        "meta_norad_cat_id": 66904,
        "meta_element_set_no": 999,
        "meta_rev_at_epoch": 295,
        "meta_bstar": -0.0010065488,
        "meta_mean_motion_dot": -0.00261771,
        "meta_mean_motion_ddot": 0,
        "tle_line1": "1 66904U 25283AC  25349.89907432 -.00261771  00000+0 -10065-2 0  9999",
        "tle_line2": "2 66904  53.1545  57.8004 0001977  27.1943 332.9185 15.87209690  2958"
      },
      "geometry": {
        "type": "Point",
        "coordinates": [
          -134.12928330808774,
          13.277053456607904
        ]
      }
    }
  ]
}